[{"OBJECT_NAME":"STARLINK-5305","OBJECT_ID":"2023-010AX","EPOCH":"2026-03-09T23:24:48.397824","MEAN_MOTION":14.983289,"ECCENTRICITY":0.00027201,"INCLINATION":70.001,"RA_OF_ASC_NODE":3.7935,"ARG_OF_PERICENTER":272.9797,"MEAN_ANOMALY":87.1051,"EPHEMERIS_TYPE":0,"CLASSIFICATION_TYPE":"U","NORAD_CAT_ID":55314,"ELEMENT_SET_NO":999,"REV_AT_EPOCH":17468,"BSTAR":-4.3090972e-5,"MEAN_MOTION_DOT":-6.07e-6,"MEAN_MOTION_DDOT":0},{"OBJECT_NAME":"ICEYE-X39","OBJECT_ID":"2024-149CG","EPOCH":"2026-03-09T17:17:30.183072","MEAN_MOTION":14.99225125,"ECCENTRICITY":0.0005274,"INCLINATION":97.6853,"RA_OF_ASC_NODE":147.0953,"ARG_OF_PERICENTER":52.5538,"MEAN_ANOMALY":307.6164,"EPHEMERIS_TYPE":0,"CLASSIFICATION_TYPE":"U","NORAD_CAT_ID":60546,"ELEMENT_SET_NO":999,"REV_AT_EPOCH":8521,"BSTAR":0.00029320082,"MEAN_MOTION_DOT":3.515e-5,"MEAN_MOTION_DDOT":0}]
